NORAD_CAT_ID,OBJECT_NAME,OBJECT_TYPE,EPOCH,MEAN_MOTION,ECCENTRICITY,INCLINATION,RA_OF_ASC_NODE,ARG_OF_PERICENTER,MEAN_ANOMALY,BSTAR,MEAN_MOTION_DOT,MEAN_MOTION_DDOT,TLE_LINE0,TLE_LINE1,TLE_LINE2,SEMIMAJOR_AXIS,PERIOD,APOGEE,PERIGEE,DECAYED
52872.0,STARLINK-4213,PAYLOAD,2022-11-02 06:00:00,15.08823626,0.0001359,53.2145,106.3496,85.5445,274.7491,0.0020426,0.00032355,0.0,0 STARLINK-4213,1 52872U 22062AU  22306.25001157  .00032355  00000-0  20426-2 0  9994,2 52872  53.2145 106.3496 0001359  85.5445 274.7491 15.08823626 21855,6917.93,95.439,540.736,538.855,0.0
52872.0,STARLINK-4213,PAYLOAD,2022-11-02 14:00:01,15.08864577,0.0001419999999999,53.2152,104.8534,84.2078,287.671,-0.0012355,-0.0001991,0.0,0 STARLINK-4213,1 52872U 22062AU  22306.58334491 -.00019910  00000-0 -12355-2 0  9996,2 52872  53.2152 104.8534 0001420  84.2078 287.6710 15.08864577  1301,6917.805,95.436,540.653,538.688,0.0
52872.0,STARLINK-4213,PAYLOAD,2022-11-02 18:43:02,15.08845556,0.0001367,53.2162,103.9713,83.9035,276.2113,0.00014421,2.008e-05,0.0,0 STARLINK-4213,1 52872U 22062AU  22306.77989183  .00002008  00000-0  14421-3 0  9996,2 52872  53.2162 103.9713 0001367  83.9035 276.2113 15.08845556 21444,6917.863,95.437,540.674,538.783,0.0
52872.0,STARLINK-4213,PAYLOAD,2022-11-02 21:53:48,15.08847852,0.0001366,53.2161,103.3763,84.5373,275.5775,0.00016637,2.361e-05,0.0,0 STARLINK-4213,1 52872U 22062AU  22306.91237015  .00002361  00000-0  16637-3 0  9995,2 52872  53.2161 103.3763 0001366  84.5373 275.5775 15.08847852 21956,6917.856,95.437,540.6659999999998,538.776,0.0
52872.0,STARLINK-4213,PAYLOAD,2022-11-03 12:12:16,15.08847586,0.000136,53.2161,100.6998,83.9581,276.1566,0.00016394,2.323e-05,0.0,0 STARLINK-4213,1 52872U 22062AU  22307.50852908  .00002323  00000-0  16394-3 0  9993,2 52872  53.2161 100.6998 0001360  83.9581 276.1566 15.08847586 21559,6917.857,95.437,540.663,538.781,0.0
52872.0,STARLINK-4213,PAYLOAD,2022-11-03 18:33:49,15.08848654,0.0001383,53.2153,99.5101,82.7597,277.3553,0.00023973,3.53e-05,0.0,0 STARLINK-4213,1 52872U 22062AU  22307.77349085  .00003530  00000-0  23973-3 0  9991,2 52872  53.2153  99.5101 0001383  82.7597 277.3553 15.08848654 22086,6917.854,95.437,540.6759999999998,538.762,0.0
52872.0,STARLINK-4213,PAYLOAD,2022-11-03 20:09:12,15.0885039,0.0001382,53.2153,99.2127,82.3867,277.7282,0.00025744,3.813e-05,0.0,0 STARLINK-4213,1 52872U 22062AU  22307.83972979  .00003813  00000-0  25744-3 0  9994,2 52872  53.2153  99.2127 0001382  82.3867 277.7282 15.08850390 21606,6917.849,95.437,540.67,538.758,0.0
52872.0,STARLINK-4213,PAYLOAD,2022-11-04 12:03:03,15.08853809,0.0001371,53.2154,96.2383,87.3802,272.7347,0.00010911,1.4499999999999992e-05,0.0,0 STARLINK-4213,1 52872U 22062AU  22308.50212339  .00001450  00000-0  10911-3 0  9991,2 52872  53.2154  96.2383 0001371  87.3802 272.7347 15.08853809 21706,6917.8380000000025,95.437,540.6519999999998,538.755,0.0
52872.0,STARLINK-4213,PAYLOAD,2022-11-04 19:59:59,15.08840827,0.0001338,53.2154,94.7522,79.8129,280.3014,-8.330100000000001e-05,-1.613e-05,0.0,0 STARLINK-4213,1 52872U 22062AU  22308.83332842 -.00001613  00000-0 -83301-4 0  9996,2 52872  53.2154  94.7522 0001338  79.8129 280.3014 15.08840827 21752,6917.878000000002,95.438,540.668,538.817,0.0
52872.0,STARLINK-4213,PAYLOAD,2022-11-05 02:21:31,15.08847791,0.0001276,53.2164,93.5628,80.455,279.6586,4.1802e-05,3.78e-06,0.0,0 STARLINK-4213,1 52872U 22062AU  22309.09828479  .00000378  00000-0  41802-4 0  9996,2 52872  53.2164  93.5628 0001276  80.4550 279.6586 15.08847791 22285,6917.857,95.437,540.604,538.839,0.0
52872.0,STARLINK-4213,PAYLOAD,2022-11-05 11:53:52,15.08824649,7.670000000000001e-05,53.2161,91.7776,59.1773,300.9295,-0.0001272,-2.311e-05,0.0,0 STARLINK-4213,1 52872U 22062AU  22309.49574300 -.00002311  00000-0 -12720-3 0  9998,2 52872  53.2161  91.7776 0000767  59.1773 300.9295 15.08824649 22349,6917.927,95.439,540.323,539.262,0.0
52872.0,STARLINK-4213,PAYLOAD,2022-11-05 18:15:24,15.08825085,0.0001239,53.2166,90.5893,80.2286,279.8846,-0.00010958,-2.031e-05,0.0,0 STARLINK-4213,1 52872U 22062AU  22309.76070463 -.00002031  00000-0 -10958-3 0  9999,2 52872  53.2166  90.5893 0001239  80.2286 279.8846 15.08825085 21890,6917.926,95.438,540.648,538.934,0.0
52872.0,STARLINK-4213,PAYLOAD,2022-11-05 21:26:10,15.08827779,0.0001214,53.2166,89.9944,80.6063,279.5066,-8.4649e-05,-1.634e-05,0.0,0 STARLINK-4213,1 52872U 22062AU  22309.89318272 -.00001634  00000-0 -84649-4 0  9993,2 52872  53.2166  89.9944 0001214  80.6063 279.5066 15.08827779 22400,6917.918000000002,95.438,540.623,538.943,0.0
52872.0,STARLINK-4213,PAYLOAD,2022-11-06 11:44:39,15.08829162,0.0001178,53.2164,87.3182,75.92699999999998,284.1853,7.8268e-05,9.58e-06,0.0,0 STARLINK-4213,1 52872U 22062AU  22310.48934156  .00000958  00000-0  78268-4 0  9991,2 52872  53.2164  87.3182 0001178  75.9270 284.1853 15.08829162 22000,6917.9140000000025,95.438,540.5930000000002,538.964,0.0
52872.0,STARLINK-4213,PAYLOAD,2022-11-06 19:41:34,15.08837086,0.0001211,53.2156,85.8309,75.5521,284.5606,0.00017543,2.505e-05,0.0,0 STARLINK-4213,1 52872U 22062AU  22310.82053740  .00002505  00000-0  17543-3 0  9998,2 52872  53.2156  85.8309 0001211  75.5521 284.5606 15.08837086 22541,6917.889,95.438,540.592,538.9169999999998,0.0
52872.0,STARLINK-4213,PAYLOAD,2022-11-07 17:56:58,15.0884788,0.0001366,53.2158,81.6681,74.8162,285.2981,0.00047666,7.308e-05,0.0,0 STARLINK-4213,1 52872U 22062AU  22311.74789874  .00007308  00000-0  47666-3 0  9999,2 52872  53.2158  81.6681 0001366  74.8162 285.2981 15.08847880 22192,6917.856,95.437,540.6659999999998,538.776,0.0
52872.0,STARLINK-4213,PAYLOAD,2022-11-08 01:53:53,15.08859024,0.0001406,53.2157,80.1812,72.2863,287.8282,0.00053738,8.279e-05,0.0,0 STARLINK-4213,1 52872U 22062AU  22312.07909335  .00008279  00000-0  53738-3 0  9997,2 52872  53.2157  80.1812 0001406  72.2863 287.8282 15.08859024 22731,6917.821999999999,95.436,540.66,538.715,0.0
52872.0,STARLINK-4213,PAYLOAD,2022-11-08 17:47:44,15.08858143,0.0001353,53.2153,77.2062,70.7476,289.3663,0.00029021,4.336e-05,0.0,0 STARLINK-4213,1 52872U 22062AU  22312.74148611  .00004336  00000-0  29021-3 0  9991,2 52872  53.2153  77.2062 0001353  70.7476 289.3663 15.08858143 22837,6917.825,95.436,540.626,538.754,0.0
52872.0,STARLINK-4213,PAYLOAD,2022-11-09 14:27:44,15.08831713,0.0001318,53.2157,73.3412,68.9265,291.1868,-0.00070448,-0.0001148,0.0,0 STARLINK-4213,1 52872U 22062AU  22313.60259905 -.00011480  00000-0 -70448-3 0  9995,2 52872  53.2157  73.3412 0001318  68.9265 291.1868 15.08831713 22475,6917.906,95.438,540.682,538.859,0.0
52872.0,STARLINK-4213,PAYLOAD,2022-11-09 19:13:54,15.08815134,0.0001405,53.2161,72.4499,65.4848,294.6291,-0.00090484,-0.0001465,0.0,0 STARLINK-4213,1 52872U 22062AU  22313.80132951 -.00014650  00000-0 -90484-3 0  9992,2 52872  53.2161  72.4499 0001405  65.4848 294.6291 15.08815134 22995,6917.956,95.439,540.793,538.849,0.0
52872.0,STARLINK-4213,PAYLOAD,2022-11-10 14:18:33,15.08815947,0.0001443,53.2165,68.8816,65.1252,294.9890000000001,5.0864e-05,5.21e-06,0.0,0 STARLINK-4213,1 52872U 22062AU  22314.59622428  .00000521  00000-0  50864-4 0  9991,2 52872  53.2165  68.8816 0001443  65.1252 294.9890 15.08815947 23114,6917.954000000002,95.439,540.817,538.821,0.0
52872.0,STARLINK-4213,PAYLOAD,2022-11-11 12:33:58,15.08853946,0.00015,53.2168,64.7193,63.0752,297.0394,0.0012985,0.00020446,0.0,0 STARLINK-4213,1 52872U 22062AU  22315.52358984  .00020446  00000-0  12985-2 0  9996,2 52872  53.2168  64.7193 0001500  63.0752 297.0394 15.08853946 22760,6917.8380000000025,95.437,540.74,538.665,0.0
52872.0,STARLINK-4213,PAYLOAD,2022-11-11 14:09:21,15.08858032,0.0001554,53.2169,64.4208,65.3195,294.7959,0.0013515,0.00021297,0.0,0 STARLINK-4213,1 52872U 22062AU  22315.58982875  .00021297  00000-0  13515-2 0  9999,2 52872  53.2169  64.4208 0001554  65.3195 294.7959 15.08858032 23268,6917.825,95.436,540.765,538.615,0.0
52872.0,STARLINK-4213,PAYLOAD,2022-11-12 12:24:44,15.08861669,0.0001589,53.217,60.2585,68.6192,291.497,0.0012053,0.00018958,0.0,0 STARLINK-4213,1 52872U 22062AU  22316.51718572  .00018958  00000-0  12053-2 0  9990,2 52872  53.2170  60.2585 0001589  68.6192 291.4970 15.08861669 23406,6917.814,95.436,540.778,538.58,0.0
52872.0,STARLINK-4213,PAYLOAD,2022-11-12 18:46:17,15.08858557,0.0001504,53.2172,59.0697,59.3268,300.7872,0.00072176,0.00011223,0.0,0 STARLINK-4213,1 52872U 22062AU  22316.78214306  .00011223  00000-0  72176-3 0  9996,2 52872  53.2172  59.0697 0001504  59.3268 300.7872 15.08858557 22952,6917.824000000001,95.436,540.729,538.648,0.0
52872.0,STARLINK-4213,PAYLOAD,2022-11-12 23:32:26,15.08855446,0.0001583,53.2166,58.1774,65.8685,294.2472,0.00039623,6.026e-05,0.0,0 STARLINK-4213,1 52872U 22062AU  22316.98086108  .00006026  00000-0  39623-3 0  9990,2 52872  53.2166  58.1774 0001583  65.8685 294.2472 15.08855446 23478,6917.833000000001,95.437,540.793,538.6030000000002,0.0
52872.0,STARLINK-4213,PAYLOAD,2022-11-13 10:40:08,15.08836448,0.0001526,53.2162,56.0957,60.5515,299.5629,-0.00013802,-2.484e-05,0.0,0 STARLINK-4213,1 52872U 22062AU  22317.44454322 -.00002484  00000-0 -13802-3 0  9996,2 52872  53.2162  56.0957 0001526  60.5515 299.5629 15.08836448 23546,6917.891,95.438,540.812,538.701,0.0
52872.0,STARLINK-4213,PAYLOAD,2022-11-13 15:26:18,15.08836776,0.0001514,53.2172,55.2043,73.6787,286.4372,-0.0001506,-2.684e-05,0.0,0 STARLINK-4213,1 52872U 22062AU  22317.64326535 -.00002684  00000-0 -15060-3 0  9992,2 52872  53.2172  55.2043 0001514  73.6787 286.4372 15.08836776 23080,6917.89,95.438,540.803,538.7080000000002,0.0
52872.0,STARLINK-4213,PAYLOAD,2022-11-14 08:55:33,15.08827912,0.0001553,53.2161,51.9328,60.3795,299.7352,-0.0001524,-2.712e-05,0.0,0 STARLINK-4213,1 52872U 22062AU  22318.37191509 -.00002712  00000-0 -15240-3 0  9996,2 52872  53.2161  51.9328 0001553  60.3795 299.7352 15.08827912 23685,6917.917,95.438,540.857,538.7080000000002,0.0
